49105,ONEWEB-0319,2021,109.29,148.0,+,87.91,Active,1,LEO,Kazakhstan,UK,Commercial,Communications,Soyuz,1 49105U 21075AG  24288.49473171  .00000113  00000+0  25855-3 0  9996,2 49105  87.9087 127.5412 0001116  78.1077 282.0180 13.17650214153180,13.17650214,0.0001116,LEO
49106,ONEWEB-0323,2021,109.72,148.0,+,87.88,Active,1,LEO,Kazakhstan,UK,Commercial,Communications,Soyuz,1 49106U 21075AH  24288.53348620  .00000256  00000+0  67496-3 0  9997,2 49106  87.8810 112.2702 0001496  81.2784 278.8514 13.12441283154452,13.12441283,0.0001496,LEO
49107,ONEWEB-0329,2021,109.29,148.0,+,87.91,Active,1,LEO,Kazakhstan,UK,Commercial,Communications,Soyuz,1 49107U 21075AJ  24288.50317836  .00000079  00000+0  16912-3 0  9990,2 49107  87.9086 127.5437 0001480  78.3096 281.8202 13.17650485153165,13.17650485,0.000148,LEO
49108,ONEWEB-0330,2021,109.29,148.0,+,87.91,Active,1,LEO,Kazakhstan,UK,Commercial,Communications,Soyuz,1 49108U 21075AK  24288.50486075  .00000071  00000+0  14966-3 0  9992,2 49108  87.9086 127.5446 0001622  73.6552 286.4758 13.17649471153204,13.17649471,0.0001622,LEO
49186,ONEWEB-0292,2021,109.63,148.0,+,87.89,Active,1,LEO,Kazakhstan,UK,Commercial,Communications,Soyuz,1 49186U 21083A   24287.83909689 -.00000081  00000+0 -25676-3 0  9996,2 49186  87.8872  81.8804 0001490  97.3989 262.7309 13.13471251150674,13.13471251,0.000149,LEO
49187,ONEWEB-0303,2021,109.2,148.0,+,87.91,Active,1,LEO,Kazakhstan,UK,Commercial,Communications,Soyuz,1 49187U 21083B   24288.49912620  .00000123  00000+0  27839-3 0  9997,2 49187  87.9053  96.9961 0001445  91.3944 268.7354 13.18686781149498,13.18686781,0.0001445,LEO
49188,ONEWEB-0306,2021,109.2,148.0,+,87.91,Active,1,LEO,Kazakhstan,UK,Commercial,Communications,Soyuz,1 49188U 21083C   24288.48961641 -.00000921  00000+0 -23702-2 0  9996,2 49188  87.9053  96.9843 0001730  84.4603 275.6727 13.18687146149532,13.18687146,0.000173,LEO
49189,ONEWEB-0307,2021,109.63,148.0,+,87.89,Active,1,LEO,Kazakhstan,UK,Commercial,Communications,Soyuz,1 49189U 21083D   24287.98591440 -.00000187  00000+0 -54817-3 0  9993,2 49189  87.8875  81.8529 0001923  85.8311 274.3038 13.13468955150693,13.13468955,0.0001923,LEO
